NORAD_CAT_ID,OBJECT_NAME,OBJECT_TYPE,EPOCH,MEAN_MOTION,ECCENTRICITY,INCLINATION,RA_OF_ASC_NODE,ARG_OF_PERICENTER,MEAN_ANOMALY,BSTAR,MEAN_MOTION_DOT,MEAN_MOTION_DDOT,TLE_LINE0,TLE_LINE1,TLE_LINE2,SEMIMAJOR_AXIS,PERIOD,APOGEE,PERIGEE,DECAYED
53420.0,STARLINK-4552,PAYLOAD,2023-09-28 21:20:22,15.08838963,0.0001356,53.2166,162.0577,96.6798,263.4349,0.0002358,3.467e-05,0.0,0 STARLINK-4552,1 53420U 22097AJ  23271.88914683  .00003467  00000-0  23580-3 0  9997,2 53420  53.2166 162.0577 0001356  96.6798 263.4349 15.08838963 63840,6917.884,95.438,540.687,538.81,0.0
53420.0,STARLINK-4552,PAYLOAD,2023-09-29 02:06:31,15.08845117,0.0001437,53.2161,161.1649,94.6695,265.4461,0.00034693,5.239e-05,0.0,0 STARLINK-4552,1 53420U 22097AJ  23272.08786767  .00005239  00000-0  34693-3 0  9996,2 53420  53.2161 161.1649 0001437  94.6695 265.4461 15.08845117 63418,6917.865,95.437,540.724,538.736,0.0
53420.0,STARLINK-4552,PAYLOAD,2023-09-29 22:46:32,15.08854558,0.0001308,53.2158,157.3008,91.8689,268.2453,0.00024023,3.539e-05,0.0,0 STARLINK-4552,1 53420U 22097AJ  23272.94898157  .00003539  00000-0  24023-3 0  9995,2 53420  53.2158 157.3008 0001308  91.8689 268.2453 15.08854558 64006,6917.836,95.437,540.606,538.796,0.0
53420.0,STARLINK-4552,PAYLOAD,2023-09-30 09:54:14,15.08838288,0.000177,53.2162,155.2195,66.0293,294.0884,0.00040466,6.158e-05,0.0,0 STARLINK-4552,1 53420U 22097AJ  23273.41267135  .00006158  00000-0  40466-3 0  9993,2 53420  53.2162 155.2195 0001770  66.0293 294.0884 15.08838288 63616,6917.886,95.438,540.975,538.526,0.0
53420.0,STARLINK-4552,PAYLOAD,2023-10-01 01:48:05,15.08845321,0.000143,53.216,152.2422,96.6877,263.4277,-2.0087e-05,-6.08e-06,0.0,0 STARLINK-4552,1 53420U 22097AJ  23274.07506212 -.00000608  00000-0 -20087-4 0  9992,2 53420  53.2160 152.2422 0001430  96.6877 263.4277 15.08845321 64178,6917.864,95.437,540.718,538.74,0.0
53420.0,STARLINK-4552,PAYLOAD,2023-10-01 19:17:19,15.08846799,0.0001383,53.2163,148.9703,81.0244,279.0905,6.215e-07,-2.78e-06,0.0,0 STARLINK-4552,1 53420U 22097AJ  23274.80370132 -.00000278  00000-0  62150-6 0  9994,2 53420  53.2163 148.9703 0001383  81.0244 279.0905 15.08846799 63820,6917.86,95.437,540.681,538.768,0.0
53420.0,STARLINK-4552,PAYLOAD,2023-10-01 20:52:42,15.08847068,0.0001414,53.2161,148.6747,72.9439,287.1708,1.4213e-05,-6.2e-07,0.0,0 STARLINK-4552,1 53420U 22097AJ  23274.86994161 -.00000062  00000-0  14213-4 0  9990,2 53420  53.2161 148.6747 0001414  72.9439 287.1708 15.08847068 64296,6917.859,95.437,540.702,538.746,0.0
53420.0,STARLINK-4552,PAYLOAD,2023-10-02 20:43:30,15.08833479,0.0001251,53.2166,144.2155,85.7243,274.3892,0.00010147,1.327e-05,0.0,0 STARLINK-4552,1 53420U 22097AJ  23275.86354869  .00001327  00000-0  10147-3 0  9991,2 53420  53.2166 144.2155 0001251  85.7243 274.3892 15.08833479 63988,6917.9,95.438,540.631,538.9,0.0
53420.0,STARLINK-4552,PAYLOAD,2023-10-03 07:51:12,15.08838651,0.0001396,53.2175,142.1347,87.2417,272.8735,-3.224e-06,-3.39e-06,0.0,0 STARLINK-4552,1 53420U 22097AJ  23276.32722874 -.00000339  00000-0 -32240-5 0  9992,2 53420  53.2175 142.1347 0001396  87.2417 272.8735 15.08838651 64514,6917.885,95.438,540.715,538.784,0.0
53420.0,STARLINK-4552,PAYLOAD,2023-10-03 20:34:18,15.08788805,0.0001614,53.2174,139.7572,89.5865,270.5312,0.00064063,9.908e-05,0.0,0 STARLINK-4552,1 53420U 22097AJ  23276.85716399  .00009908  00000-0  64063-3 0  9990,2 53420  53.2174 139.7572 0001614  89.5865 270.5312 15.08788805 64139,6918.037,95.441,541.018,538.785,0.0
53420.0,STARLINK-4552,PAYLOAD,2023-10-03 22:09:41,15.08804751,0.0001538,53.2172,139.4588,90.344,269.7729,0.00043065,6.566e-05,0.0,0 STARLINK-4552,1 53420U 22097AJ  23276.92340097  .00006566  00000-0  43065-3 0  9992,2 53420  53.2172 139.4588 0001538  90.3440 269.7729 15.08804751 64147,6917.988,95.44,540.917,538.789,0.0
53420.0,STARLINK-4552,PAYLOAD,2023-10-04 18:49:41,15.08843139,0.0001427,53.2172,135.5953,106.7324,253.3825,0.00018263,2.62e-05,0.0,0 STARLINK-4552,1 53420U 22097AJ  23277.78450524  .00002620  00000-0  18263-3 0  9993,2 53420  53.2172 135.5953 0001427 106.7324 253.3825 15.08843139 64273,6917.871,95.437,540.723,538.749,0.0
53420.0,STARLINK-4552,PAYLOAD,2023-10-04 22:00:27,15.08848008,0.0001446,53.2173,134.9989,102.172,257.9434,0.00020251,2.937e-05,0.0,0 STARLINK-4552,1 53420U 22097AJ  23277.91698237  .00002937  00000-0  20251-3 0  9994,2 53420  53.2173 134.9989 0001446 102.1720 257.9434 15.08848008 64756,6917.856,95.437,540.721,538.721,0.0
53420.0,STARLINK-4552,PAYLOAD,2023-10-05 07:32:46,15.08838509,0.0001402,53.2161,133.2153,95.0711,265.0441,7.2869e-05,8.72e-06,0.0,0 STARLINK-4552,1 53420U 22097AJ  23278.31442968  .00000872  00000-0  72869-4 0  9996,2 53420  53.2161 133.2153 0001402  95.0711 265.0441 15.08838509 64359,6917.885,95.438,540.72,538.78,0.0
53420.0,STARLINK-4552,PAYLOAD,2023-10-05 13:54:19,15.08837352,0.0001843,53.2157,132.0256,88.9124,271.2079,0.00012989,1.78e-05,0.0,0 STARLINK-4552,1 53420U 22097AJ  23278.57939324  .00001780  00000-0  12989-3 0  9996,2 53420  53.2157 132.0256 0001843  88.9124 271.2079 15.08837352 64859,6917.888,95.438,541.028,538.479,0.0
53420.0,STARLINK-4552,PAYLOAD,2023-10-05 21:51:15,15.08835762,0.00016,53.2155,130.5388,88.0426,272.075,-2.239e-05,-6.44e-06,0.0,0 STARLINK-4552,1 53420U 22097AJ  23278.91059316 -.00000644  00000-0 -22390-4 0  9996,2 53420  53.2155 130.5388 0001600  88.0426 272.0750 15.08835762 64907,6917.893,95.438,540.865,538.651,0.0
53420.0,STARLINK-4552,PAYLOAD,2023-10-06 13:45:06,15.0883425,0.0001435,53.2151,127.5628,99.8847,260.2307,-8.8698e-05,-1.699e-05,0.0,0 STARLINK-4552,1 53420U 22097AJ  23279.57299494 -.00001699  00000-0 -88698-4 0  9996,2 53420  53.2151 127.5628 0001435  99.8847 260.2307 15.08834250 65009,6917.898,95.438,540.756,538.77,0.0
53420.0,STARLINK-4552,PAYLOAD,2023-10-06 20:06:39,15.08839812,0.0001448,53.2154,126.3738,95.4607,264.655,-2.281e-05,-6.51e-06,0.0,0 STARLINK-4552,1 53420U 22097AJ  23279.83795501 -.00000651  00000-0 -22810-4 0  9996,2 53420  53.2154 126.3738 0001448  95.4607 264.6550 15.08839812 64580,6917.881,95.438,540.748,538.744,0.0
53420.0,STARLINK-4552,PAYLOAD,2023-10-06 21:42:02,15.08841746,0.0001457,53.2156,126.0765,93.8817,266.2341,1.5931e-05,-3.4e-07,0.0,0 STARLINK-4552,1 53420U 22097AJ  23279.90419438 -.00000034  00000-0  15931-4 0  9996,2 53420  53.2156 126.0765 0001457  93.8817 266.2341 15.08841746 65052,6917.875,95.437,540.748,538.732,0.0
53420.0,STARLINK-4552,PAYLOAD,2023-10-07 13:35:53,15.08842514,0.0001569,53.2155,123.1028,91.7905,268.3267,0.00032777,4.933e-05,0.0,0 STARLINK-4552,1 53420U 22097AJ  23280.56659645  .00004933  00000-0  32777-3 0  9993,2 53420  53.2155 123.1028 0001569  91.7905 268.3267 15.08842514 65155,6917.873,95.437,540.823,538.652,0.0
53420.0,STARLINK-4552,PAYLOAD,2023-10-07 19:57:26,15.08852334,0.0001565,53.2157,121.913,94.0972,266.0199,0.00034706,5.242e-05,0.0,0 STARLINK-4552,1 53420U 22097AJ  23280.83155175  .00005242  00000-0  34706-3 0  9990,2 53420  53.2157 121.9130 0001565  94.0972 266.0199 15.08852334 65197,6917.843,95.437,540.79,538.625,0.0
53420.0,STARLINK-4552,PAYLOAD,2023-10-08 07:05:08,15.0884936,0.0001158,53.2159,119.8325,85.9976,274.1149,0.00027258,4.054e-05,0.0,0 STARLINK-4552,1 53420U 22097AJ  23281.29523169  .00004054  00000-0  27258-3 0  9997,2 53420  53.2159 119.8325 0001158  85.9976 274.1149 15.08849360 64809,6917.852,95.437,540.518,538.916,0.0
53420.0,STARLINK-4552,PAYLOAD,2023-10-08 19:48:13,15.08850138,0.0001428,53.2175,117.452,95.1801,264.9354,0.00017391,2.482e-05,0.0,0 STARLINK-4552,1 53420U 22097AJ  23281.82515060  .00002482  00000-0  17391-3 0  9997,2 53420  53.2175 117.4520 0001428  95.1801 264.9354 15.08850138 65348,6917.849,95.437,540.702,538.727,0.0
53420.0,STARLINK-4552,PAYLOAD,2023-10-08 22:58:59,15.08850734,0.0001403,53.2169,116.8568,95.7234,264.3918,0.00017856,2.556e-05,0.0,0 STARLINK-4552,1 53420U 22097AJ  23281.95762917  .00002556  00000-0  17856-3 0  9994,2 53420  53.2169 116.8568 0001403  95.7234 264.3918 15.08850734 65369,6917.848,95.437,540.683,538.742,0.0
53420.0,STARLINK-4552,PAYLOAD,2023-10-09 19:39:00,15.08842895,0.0001404,53.2168,112.9881,106.9137,253.2009,-9.5559e-06,-4.4e-06,0.0,0 STARLINK-4552,1 53420U 22097AJ  23282.81875223 -.00000440  00000-0 -95559-5 0  9995,2 53420  53.2168 112.9881 0001404 106.9137 253.2009 15.08842895 65032,6917.872,95.437,540.708,538.765,0.0
53420.0,STARLINK-4552,PAYLOAD,2023-10-10 13:08:14,15.08839945,0.0001308,53.2164,109.7179,108.8485,251.2649,4.4888e-05,4.27e-06,0.0,0 STARLINK-4552,1 53420U 22097AJ  23283.54739245  .00000427  00000-0  44888-4 0  9990,2 53420  53.2164 109.7179 0001308 108.8485 251.2649 15.08839945 65605,6917.881,95.438,540.65,538.841,0.0
53420.0,STARLINK-4552,PAYLOAD,2023-10-10 19:29:47,15.08843806,0.0001217,53.215,108.5318,89.3034,270.8097,9.255e-05,1.186e-05,0.0,0 STARLINK-4552,1 53420U 22097AJ  23283.81235006  .00001186  00000-0  92550-4 0  9998,2 53420  53.2150 108.5318 0001217  89.3034 270.8097 15.08843806 65643,6917.869,95.437,540.576,538.892,0.0
53420.0,STARLINK-4552,PAYLOAD,2023-10-11 05:02:05,15.08841964,0.000108,53.2152,106.7476,86.2673,273.8443,2.1555e-05,5.5e-07,0.0,0 STARLINK-4552,1 53420U 22097AJ  23284.20979039  .00000055  00000-0  21555-4 0  9994,2 53420  53.2152 106.7476 0001080  86.2673 273.8443 15.08841964 65240,6917.874,95.437,540.487,538.992,0.0
53420.0,STARLINK-4552,PAYLOAD,2023-10-11 20:55:58,15.08835583,0.0001159,53.217,103.7728,93.6007,266.5118,5.3309e-05,5.61e-06,0.0,0 STARLINK-4552,1 53420U 22097AJ  23284.87219983  .00000561  00000-0  53309-4 0  9996,2 53420  53.2170 103.7728 0001159  93.6007 266.5118 15.08835583 65346,6917.894,95.438,540.561,538.957,0.0
53420.0,STARLINK-4552,PAYLOAD,2023-10-12 04:52:53,15.08840155,0.0001204,53.2173,102.2863,91.2204,268.8926,8.7396e-05,1.103e-05,0.0,0 STARLINK-4552,1 53420U 22097AJ  23285.20339722  .00001103  00000-0  87396-4 0  9994,2 53420  53.2173 102.2863 0001204  91.2204 268.8926 15.08840155 65856,6917.88,95.438,540.578,538.912,0.0
